[{"OBJECT_NAME":"GPS BIIR-2  (PRN 13)","OBJECT_ID":"1997-035A","EPOCH":"2026-04-04T09:52:57.696096","MEAN_MOTION":2.00564009,"ECCENTRICITY":0.00989699,"INCLINATION":55.9542,"RA_OF_ASC_NODE":101.4579,"ARG_OF_PERICENTER":56.142,"MEAN_ANOMALY":304.8226,"EPHEMERIS_TYPE":0,"CLASSIFICATION_TYPE":"U","NORAD_CAT_ID":24876,"ELEMENT_SET_NO":999,"REV_AT_EPOCH":21047,"BSTAR":0,"MEAN_MOTION_DOT":1.5e-7,"MEAN_MOTION_DDOT":0},{"OBJECT_NAME":"GPS BIIR-5  (PRN 22)","OBJECT_ID":"2000-040A","EPOCH":"2026-04-05T12:02:06.562176","MEAN_MOTION":2.00569363,"ECCENTRICITY":0.01221226,"INCLINATION":54.8674,"RA_OF_ASC_NODE":218.0478,"ARG_OF_PERICENTER":302.5101,"MEAN_ANOMALY":59.1336,"EPHEMERIS_TYPE":0,"CLASSIFICATION_TYPE":"U","NORAD_CAT_ID":26407,"ELEMENT_SET_NO":999,"REV_AT_EPOCH":18849,"BSTAR":0,"MEAN_MOTION_DOT":7.0e-8,"MEAN_MOTION_DDOT":0},{"OBJECT_NAME":"GPS BIIR-8  (PRN 16)","OBJECT_ID":"2003-005A","EPOCH":"2026-04-05T07:51:03.752928","MEAN_MOTION":2.00564575,"ECCENTRICITY":0.0148454,"INCLINATION":54.8987,"RA_OF_ASC_NODE":217.8623,"ARG_OF_PERICENTER":52.8923,"MEAN_ANOMALY":318.3429,"EPHEMERIS_TYPE":0,"CLASSIFICATION_TYPE":"U","NORAD_CAT_ID":27663,"ELEMENT_SET_NO":999,"REV_AT_EPOCH":16985,"BSTAR":0,"MEAN_MOTION_DOT":7.0e-8,"MEAN_MOTION_DDOT":0},{"OBJECT_NAME":"GPS BIIR-11 (PRN 19)","OBJECT_ID":"2004-009A","EPOCH":"2026-04-03T08:14:52.746720","MEAN_MOTION":2.00557195,"ECCENTRICITY":0.01124448,"INCLINATION":54.8926,"RA_OF_ASC_NODE":278.7093,"ARG_OF_PERICENTER":169.9755,"MEAN_ANOMALY":4.1137,"EPHEMERIS_TYPE":0,"CLASSIFICATION_TYPE":"U","NORAD_CAT_ID":28190,"ELEMENT_SET_NO":999,"REV_AT_EPOCH":16144,"BSTAR":0,"MEAN_MOTION_DOT":-3.5e-7,"MEAN_MOTION_DDOT":0},{"OBJECT_NAME":"GPS BIIR-13 (PRN 02)","OBJECT_ID":"2004-045A","EPOCH":"2026-04-04T18:08:27.918816","MEAN_MOTION":2.00575086,"ECCENTRICITY":0.01703512,"INCLINATION":55.1773,"RA_OF_ASC_NODE":327.8549,"ARG_OF_PERICENTER":314.0213,"MEAN_ANOMALY":224.915,"EPHEMERIS_TYPE":0,"CLASSIFICATION_TYPE":"U","NORAD_CAT_ID":28474,"ELEMENT_SET_NO":999,"REV_AT_EPOCH":15695,"BSTAR":0,"MEAN_MOTION_DOT":-8.5e-7,"MEAN_MOTION_DDOT":0},{"OBJECT_NAME":"GPS BIIRM-1 (PRN 17)","OBJECT_ID":"2005-038A","EPOCH":"2026-04-05T13:26:46.785408","MEAN_MOTION":2.00570861,"ECCENTRICITY":0.01280644,"INCLINATION":54.9385,"RA_OF_ASC_NODE":276.1066,"ARG_OF_PERICENTER":295.7133,"MEAN_ANOMALY":64.2611,"EPHEMERIS_TYPE":0,"CLASSIFICATION_TYPE":"U","NORAD_CAT_ID":28874,"ELEMENT_SET_NO":999,"REV_AT_EPOCH":15038,"BSTAR":0,"MEAN_MOTION_DOT":-1.6e-7,"MEAN_MOTION_DDOT":0},{"OBJECT_NAME":"INMARSAT 4-F2 (SOUTHPAN/PRN 122)","OBJECT_ID":"2005-044A","EPOCH":"2026-04-05T06:27:51.751008","MEAN_MOTION":1.00273224,"ECCENTRICITY":0.0003362,"INCLINATION":5.0001,"RA_OF_ASC_NODE":43.7744,"ARG_OF_PERICENTER":353.0078,"MEAN_ANOMALY":37.2524,"EPHEMERIS_TYPE":0,"CLASSIFICATION_TYPE":"U","NORAD_CAT_ID":28899,"ELEMENT_SET_NO":999,"REV_AT_EPOCH":7479,"BSTAR":0,"MEAN_MOTION_DOT":-2.58e-6,"MEAN_MOTION_DDOT":0},{"OBJECT_NAME":"GPS BIIRM-2 (PRN 31)","OBJECT_ID":"2006-042A","EPOCH":"2026-04-05T05:18:14.064768","MEAN_MOTION":2.00573913,"ECCENTRICITY":0.0106277,"INCLINATION":54.6997,"RA_OF_ASC_NODE":154.2366,"ARG_OF_PERICENTER":53.2094,"MEAN_ANOMALY":319.1647,"EPHEMERIS_TYPE":0,"CLASSIFICATION_TYPE":"U","NORAD_CAT_ID":29486,"ELEMENT_SET_NO":999,"REV_AT_EPOCH":14293,"BSTAR":0,"MEAN_MOTION_DOT":2.3e-7,"MEAN_MOTION_DDOT":0},{"OBJECT_NAME":"GPS BIIRM-3 (PRN 12)","OBJECT_ID":"2006-052A","EPOCH":"2026-04-04T15:01:22.786752","MEAN_MOTION":2.0055382,"ECCENTRICITY":0.00870802,"INCLINATION":54.9494,"RA_OF_ASC_NODE":216.9209,"ARG_OF_PERICENTER":89.9254,"MEAN_ANOMALY":271.054,"EPHEMERIS_TYPE":0,"CLASSIFICATION_TYPE":"U","NORAD_CAT_ID":29601,"ELEMENT_SET_NO":999,"REV_AT_EPOCH":14193,"BSTAR":0,"MEAN_MOTION_DOT":4.0e-8,"MEAN_MOTION_DDOT":0},{"OBJECT_NAME":"GPS BIIRM-4 (PRN 15)","OBJECT_ID":"2007-047A","EPOCH":"2026-04-04T22:21:21.273408","MEAN_MOTION":2.00559152,"ECCENTRICITY":0.0164095,"INCLINATION":54.0414,"RA_OF_ASC_NODE":83.0831,"ARG_OF_PERICENTER":86.2491,"MEAN_ANOMALY":275.6217,"EPHEMERIS_TYPE":0,"CLASSIFICATION_TYPE":"U","NORAD_CAT_ID":32260,"ELEMENT_SET_NO":999,"REV_AT_EPOCH":13534,"BSTAR":0,"MEAN_MOTION_DOT":-1.3e-7,"MEAN_MOTION_DDOT":0},{"OBJECT_NAME":"COSMOS 2433 (720)","OBJECT_ID":"2007-052A","EPOCH":"2026-03-31T00:27:15.111360","MEAN_MOTION":2.13103725,"ECCENTRICITY":9.347e-5,"INCLINATION":65.6193,"RA_OF_ASC_NODE":318.5652,"ARG_OF_PERICENTER":250.3488,"MEAN_ANOMALY":109.6996,"EPHEMERIS_TYPE":0,"CLASSIFICATION_TYPE":"U","NORAD_CAT_ID":32275,"ELEMENT_SET_NO":999,"REV_AT_EPOCH":14339,"BSTAR":0,"MEAN_MOTION_DOT":-3.5e-7,"MEAN_MOTION_DDOT":0},{"OBJECT_NAME":"COSMOS 2432 (719)","OBJECT_ID":"2007-052B","EPOCH":"2026-04-05T11:40:30.740160","MEAN_MOTION":2.13103236,"ECCENTRICITY":0.00096898,"INCLINATION":65.6327,"RA_OF_ASC_NODE":318.5074,"ARG_OF_PERICENTER":336.2251,"MEAN_ANOMALY":202.4839,"EPHEMERIS_TYPE":0,"CLASSIFICATION_TYPE":"U","NORAD_CAT_ID":32276,"ELEMENT_SET_NO":999,"REV_AT_EPOCH":14353,"BSTAR":0,"MEAN_MOTION_DOT":-4.6e-7,"MEAN_MOTION_DDOT":0},{"OBJECT_NAME":"GPS BIIRM-5 (PRN 29)","OBJECT_ID":"2007-062A","EPOCH":"2026-04-05T00:04:11.523360","MEAN_MOTION":2.00555625,"ECCENTRICITY":0.00339116,"INCLINATION":55.091,"RA_OF_ASC_NODE":277.0926,"ARG_OF_PERICENTER":161.3571,"MEAN_ANOMALY":17.5151,"EPHEMERIS_TYPE":0,"CLASSIFICATION_TYPE":"U","NORAD_CAT_ID":32384,"ELEMENT_SET_NO":999,"REV_AT_EPOCH":13404,"BSTAR":0,"MEAN_MOTION_DOT":-2.2e-7,"MEAN_MOTION_DDOT":0},{"OBJECT_NAME":"COSMOS 2434 (721)","OBJECT_ID":"2007-065A","EPOCH":"2026-04-03T10:57:57.930336","MEAN_MOTION":2.13101374,"ECCENTRICITY":0.00022557,"INCLINATION":64.3164,"RA_OF_ASC_NODE":194.435,"ARG_OF_PERICENTER":60.204,"MEAN_ANOMALY":307.5513,"EPHEMERIS_TYPE":0,"CLASSIFICATION_TYPE":"U","NORAD_CAT_ID":32393,"ELEMENT_SET_NO":999,"REV_AT_EPOCH":14218,"BSTAR":0,"MEAN_MOTION_DOT":1.4e-7,"MEAN_MOTION_DDOT":0},{"OBJECT_NAME":"COSMOS 2436 (723)","OBJECT_ID":"2007-065C","EPOCH":"2026-04-05T04:47:23.356032","MEAN_MOTION":2.13100298,"ECCENTRICITY":0.00172437,"INCLINATION":64.3249,"RA_OF_ASC_NODE":194.4474,"ARG_OF_PERICENTER":2.7284,"MEAN_ANOMALY":34.5461,"EPHEMERIS_TYPE":0,"CLASSIFICATION_TYPE":"U","NORAD_CAT_ID":32395,"ELEMENT_SET_NO":999,"REV_AT_EPOCH":14217,"BSTAR":0,"MEAN_MOTION_DOT":1.8e-7,"MEAN_MOTION_DDOT":0},{"OBJECT_NAME":"GPS BIIRM-6 (PRN 07)","OBJECT_ID":"2008-012A","EPOCH":"2026-04-05T08:19:29.449632","MEAN_MOTION":2.00570393,"ECCENTRICITY":0.02087404,"INCLINATION":54.4849,"RA_OF_ASC_NODE":152.8355,"ARG_OF_PERICENTER":246.7478,"MEAN_ANOMALY":111.1181,"EPHEMERIS_TYPE":0,"CLASSIFICATION_TYPE":"U","NORAD_CAT_ID":32711,"ELEMENT_SET_NO":999,"REV_AT_EPOCH":13229,"BSTAR":0,"MEAN_MOTION_DOT":2.2e-7,"MEAN_MOTION_DDOT":0},{"OBJECT_NAME":"GPS BIIRM-8 (PRN 05)","OBJECT_ID":"2009-043A","EPOCH":"2026-04-05T13:45:46.738368","MEAN_MOTION":2.005585,"ECCENTRICITY":0.00524749,"INCLINATION":56.1679,"RA_OF_ASC_NODE":30.3043,"ARG_OF_PERICENTER":80.9328,"MEAN_ANOMALY":97.153,"EPHEMERIS_TYPE":0,"CLASSIFICATION_TYPE":"U","NORAD_CAT_ID":35752,"ELEMENT_SET_NO":999,"REV_AT_EPOCH":12190,"BSTAR":0,"MEAN_MOTION_DOT":-8.7e-7,"MEAN_MOTION_DDOT":0}]
